MULTIPOLYGON (((-22.1 29.68,-22.28 27.23,-21.27 25.26,-19.38 24.25,-14.12 26.95,-11.9 28.92,-11.4 30.35,-12.58 32.36,-12.18 34.52,-8.84 34.81,-6.05 35.6,-4.62 35.46,-4.43 34.82,-3.4 35.31,-2.34 34.8,-2.13 35.46,0.98 37.25,6.05 38.37,7.77 37.65,10.43 37.98,11.36 37.17,11.41 36.39,12.15 36.1,11.66 35.72,11.82 35.16,13.17 35.12,13.5 34.4,15.14 33.85,18.34 35.02,21.19 34.45,24.45 33.08,26.99 32.94,29.8 33.45,33.01 32.53,35.08 34.17,35.61 35.66,36.44 35.53,37.14 36.28,45.12 36.89,44.68 39.11,45.28 39.71,44.1 40.39,44.2 40.83,48.03 40.87,50.5 42.73,49.5 43.71,50.07 43.92,49.69 44.97,50.53 46.03,48.54 47.96,47.19 48.63,47.59 49.08,47.42 49.61,49.14 49.66,49.3 50.36,50.96 51.21,53.11 51.12,54.44 50.19,58.15 50.66,59.54 50.15,60.56 50.56,61.55 76.3,62.6 81.9,64.36 85.19,51.93 85.45,33.63 84.18,17.91 84.5,5.31 83.92,3.35 82.48,-3.44 80.05,-5.07 78.33,-4.04 76.71,5.21 74.16,8.79 72.14,6.29 71.22,3.05 69.21,2.25 68.03,2.45 66.61,0.72 65.6,-0.52 65,-4.72 65.99,-5.48 67.36,-1.35 68.15,1.54 69.26,3.28 70.76,3.28 72.19,0.42 73.84,-5.1 74.73,-12.6 72.97,-13.91 71.94,-14.66 69.97,-14.41 69.62,-24.94 67.94,-29.84 66.33,-31.63 63.18,-28.52 60.91,-21.44 59.64,-14.19 60.17,-15.52 58.51,-15.09 56.64,-16.56 54.8,-16.58 51.49,-14.91 49.33,-11.14 47.86,-10.3 47.06,-13.01 45.66,-14.25 43.89,-14.29 42.52,-13.77 41.28,-14.32 39.27,-13.39 35.96,-15 36.68,-16.83 36.8,-19.17 36.19,-20.62 35.23,-21.59 33.5,-21.2 31.22,-22.1 29.68),(39.46 75.82,39.53 76.5,41.92 76.55,39.67 72.94,35.81 74,38.29 74.81,39.46 75.82)),((-35.92 38.66,-34.64 36.8,-28.82 34.71,-27.03 33.55,-24.77 33.23,-23.03 33.61,-21.58 34.53,-20.46 36.03,-20.15 37.53,-21.02 39.67,-22.48 40.93,-26.29 42.56,-31.41 43.41,-34.11 42.64,-35.76 40.84,-35.92 38.66)))