{"type":"FeatureCollection","features":[{"type":"Feature","properties":{"name":"Wider Europe EEZ + land, simplified 5km","buffer_km":5,"vertices":568,"wkt_chars":7974},"geometry":{"type":"MultiPolygon","coordinates":[[[[-13.499,37.522],[-13.22,37.065],[-13.141,36.441],[-12.908,35.807],[-12.495,35.175],[-12.19,34.847],[-12.107,34.832],[-8.899,35.123],[-8.337,35.244],[-7.519,35.713],[-6.098,35.917],[-5.635,35.89],[-5.479,35.931],[-5.229,35.746],[-4.682,35.76],[-4.53,35.85],[-4.335,35.834],[-3.938,35.942],[-3.418,35.623],[-2.369,35.708],[-0.843,36.653],[-0.421,36.744],[0.099,37.0],[0.81,37.57],[1.478,37.559],[2.053,37.632],[2.785,37.934],[3.325,37.965],[4.596,38.332],[5.334,38.403],[6.065,38.747],[6.799,38.352],[7.808,37.964],[8.82,38.173],[9.908,38.196],[10.662,38.356],[10.836,38.028],[11.76,37.314],[11.927,37.085],[11.745,37.029],[11.62,36.897],[11.602,36.758],[11.699,36.601],[11.986,36.467],[12.296,36.573],[12.624,36.07],[12.529,35.938],[12.535,35.789],[12.239,35.788],[12.061,35.683],[12.016,35.528],[12.087,35.39],[12.518,35.238],[12.722,35.241],[12.916,35.381],[12.932,35.592],[13.102,35.663],[13.611,35.164],[13.722,34.659],[14.389,34.524],[15.113,34.456],[15.148,34.173],[15.831,34.293],[16.519,34.52],[18.309,35.374],[19.738,34.904],[21.32,34.753],[23.329,33.776],[24.461,33.402],[25.156,33.423],[26.183,33.237],[26.982,33.256],[28.814,33.461],[29.255,33.71],[29.84,33.774],[31.591,33.149],[32.977,32.843],[34.759,34.347],[34.966,34.676],[35.028,34.978],[35.145,35.143],[35.249,35.828],[35.222,35.991],[35.652,35.998],[36.192,35.779],[36.232,35.913],[36.425,35.987],[36.447,36.166],[36.747,36.221],[36.741,36.313],[36.606,36.487],[36.723,36.781],[36.941,36.727],[37.082,36.59],[37.224,36.629],[37.482,36.59],[37.674,36.699],[38.25,36.872],[38.516,36.809],[38.73,36.663],[39.223,36.624],[39.843,36.714],[40.79,37.075],[41.523,37.034],[42.058,37.14],[42.195,37.235],[42.276,37.218],[42.335,37.059],[42.589,37.099],[42.797,37.312],[42.968,37.27],[43.127,37.325],[43.832,37.15],[44.115,37.272],[44.212,37.221],[44.131,37.1],[44.176,37.01],[44.314,36.921],[44.643,37.135],[44.827,37.113],[44.87,37.285],[44.66,37.47],[44.677,37.741],[44.408,37.912],[44.302,37.92],[44.568,38.346],[44.467,38.428],[44.378,38.415],[44.38,38.621],[44.326,38.71],[44.371,38.813],[44.256,38.952],[44.278,39.114],[44.159,39.226],[44.124,39.354],[44.31,39.331],[44.463,39.38],[44.486,39.542],[44.595,39.71],[44.796,39.584],[44.874,39.662],[44.439,40.041],[44.276,40.093],[43.911,40.069],[43.749,40.128],[43.637,40.473],[43.785,40.636],[43.806,40.736],[43.726,40.958],[43.525,41.087],[43.764,41.065],[44.224,41.185],[44.467,41.136],[44.655,41.185],[44.904,41.161],[45.314,41.422],[45.626,41.333],[45.773,41.188],[45.958,41.133],[46.254,41.14],[46.513,41.012],[46.7,41.085],[46.797,41.286],[46.663,41.427],[46.391,41.539],[46.393,41.615],[46.249,41.695],[46.461,41.839],[46.561,41.761],[46.713,41.784],[46.978,41.525],[47.099,41.514],[47.268,41.271],[47.537,41.157],[47.813,41.146],[47.936,41.193],[48.122,41.45],[48.434,41.571],[48.638,41.809],[49.928,42.524],[50.062,42.748],[49.366,43.321],[49.063,43.358],[49.063,44.022],[49.659,44.048],[49.644,44.364],[49.179,44.378],[49.239,45.083],[50.073,46.006],[49.741,46.221],[49.538,46.232],[48.567,46.688],[48.641,46.724],[48.722,46.648],[48.927,46.648],[49.088,46.758],[48.766,47.117],[48.581,47.427],[48.479,47.455],[48.24,47.725],[48.035,47.81],[47.67,47.804],[47.418,47.88],[47.354,47.857],[47.337,47.752],[47.261,47.785],[47.138,47.978],[47.277,48.069],[47.183,48.132],[47.185,48.282],[46.578,48.455],[46.834,48.915],[47.094,49.073],[47.099,49.197],[46.857,49.361],[46.897,49.554],[46.963,49.827],[47.242,49.91],[47.412,50.069],[47.368,50.281],[47.575,50.416],[48.041,50.067],[48.175,49.838],[48.467,49.76],[48.969,50.0],[48.8,50.281],[48.735,50.56],[48.864,50.561],[49.169,50.745],[49.48,50.821],[49.516,50.873],[49.441,51.008],[49.47,51.054],[49.808,51.067],[50.045,51.204],[50.412,51.294],[50.429,51.36],[50.626,51.463],[50.612,51.549],[50.841,51.543],[50.903,51.638],[51.237,51.628],[51.166,51.565],[51.235,51.457],[51.57,51.459],[51.652,51.405],[51.879,51.476],[51.857,51.565],[51.939,51.639],[52.104,51.615],[52.309,51.692],[52.518,51.4],[53.211,51.458],[53.529,51.379],[53.528,51.29],[53.62,51.194],[53.973,51.121],[54.143,50.938],[54.421,50.811],[54.344,50.613],[54.53,50.486],[54.657,50.5],[54.803,50.612],[54.767,50.903],[54.652,50.977],[55.021,50.861],[54.997,50.791],[55.354,50.612],[55.46,50.627],[55.73,50.505],[56.191,50.722],[56.231,50.871],[56.412,50.867],[56.532,50.984],[56.784,50.939],[56.823,50.973],[56.79,51.046],[57.151,51.043],[57.279,50.909],[57.502,50.833],[57.595,50.889],[57.81,50.893],[57.829,51.064],[58.184,51.019],[58.301,51.103],[58.342,51.039],[58.529,51.025],[58.526,50.87],[58.611,50.778],[58.863,50.656],[59.399,50.598],[59.489,50.458],[59.853,50.499],[60.066,50.661],[60.195,76.338],[60.324,81.882],[60.543,85.178],[58.897,85.222],[53.439,85.17],[46.218,84.917],[40.846,84.532],[37.617,84.129],[34.122,83.804],[25.531,84.123],[19.862,84.186],[13.315,84.066],[7.652,83.739],[7.252,83.565],[5.548,82.365],[4.286,82.04],[1.951,81.306],[-1.86,79.904],[-3.555,78.345],[-3.419,77.61],[-2.95,76.893],[-1.392,76.438],[0.799,75.936],[2.771,75.26],[6.254,74.32],[6.748,73.75],[7.569,73.197],[8.702,72.66],[10.116,72.17],[9.804,71.999],[8.25,71.536],[7.269,71.137],[5.201,70.004],[3.972,69.172],[3.391,68.63],[3.085,68.034],[3.034,67.736],[3.055,67.427],[3.304,66.827],[3.187,66.456],[2.239,66.014],[1.314,65.399],[0.656,65.116],[-0.487,64.509],[-1.437,64.947],[-2.585,65.299],[-4.081,65.586],[-5.465,65.732],[-5.513,66.091],[-5.659,66.448],[-6.483,67.579],[-4.752,67.808],[-2.393,68.27],[-0.884,68.705],[0.367,69.213],[1.444,69.853],[2.193,70.579],[2.402,70.917],[2.508,71.243],[2.517,71.57],[2.424,71.895],[2.119,72.339],[1.61,72.763],[0.909,73.151],[0.056,73.489],[-1.02,73.802],[-2.216,74.057],[-4.966,74.407],[-11.614,72.841],[-12.909,71.889],[-13.758,69.918],[-13.406,69.586],[-13.657,69.391],[-21.801,68.178],[-24.504,67.669],[-25.661,67.42],[-27.061,66.992],[-29.085,66.227],[-29.963,65.227],[-30.683,63.934],[-30.968,63.313],[-30.22,62.461],[-29.719,62.025],[-28.955,61.545],[-28.032,61.125],[-27.008,60.789],[-25.89,60.536],[-21.582,59.957],[-20.167,59.931],[-17.344,60.082],[-15.677,60.301],[-14.044,60.651],[-13.391,60.151],[-13.935,59.795],[-14.372,59.401],[-14.698,58.972],[-14.899,58.529],[-14.982,58.043],[-14.929,57.547],[-14.739,57.049],[-14.429,56.59],[-14.936,56.219],[-15.485,55.681],[-15.793,55.261],[-15.994,54.821],[-16.092,54.117],[-15.921,53.185],[-16.076,52.8],[-16.154,52.412],[-16.163,51.99],[-16.088,51.569],[-15.868,51.034],[-15.467,50.419],[-15.093,49.993],[-14.623,49.596],[-13.851,49.087],[-13.069,48.717],[-11.791,48.32],[-10.848,48.137],[-10.438,47.761],[-9.94,47.413],[-9.723,46.897],[-11.463,46.184],[-12.527,45.569],[-13.249,44.884],[-13.564,44.426],[-13.771,43.979],[-13.909,43.315],[-13.87,42.607],[-13.705,42.024],[-13.327,41.236],[-13.612,40.795],[-13.807,40.324],[-13.905,39.863],[-13.917,39.358],[-13.688,37.993],[-13.499,37.522]],[[38.182,75.803],[38.195,76.783],[41.595,76.908],[43.686,76.779],[43.26,76.516],[42.936,76.233],[42.686,75.887],[42.593,75.423],[42.063,75.051],[41.788,74.75],[41.625,74.441],[41.569,74.066],[41.252,73.711],[41.045,73.303],[40.821,73.05],[40.654,72.748],[40.584,72.181],[39.851,72.298],[38.79,72.749],[37.078,73.297],[34.024,73.979],[35.58,74.373],[37.162,74.897],[37.175,75.188],[38.182,75.803]]],[[[-2.573,35.154],[-2.482,35.11],[-2.331,35.179],[-2.415,35.232],[-2.566,35.204],[-2.573,35.154]]],[[[-2.956,35.378],[-3.021,35.269],[-2.924,35.224],[-2.832,35.341],[-2.879,35.393],[-2.956,35.378]]],[[[-3.883,35.301],[-3.959,35.212],[-3.859,35.171],[-3.795,35.283],[-3.883,35.301]]],[[[-4.314,35.244],[-4.363,35.167],[-4.303,35.124],[-4.24,35.177],[-4.314,35.244]]],[[[-21.814,29.33],[-21.851,28.627],[-21.961,28.002],[-21.947,27.39],[-21.809,26.785],[-21.548,26.201],[-21.18,25.677],[-20.709,25.213],[-20.166,24.84],[-19.529,24.542],[-17.16,25.617],[-16.702,26.088],[-15.997,26.358],[-14.683,27.147],[-14.32,27.199],[-13.783,27.638],[-13.413,28.039],[-13.181,28.402],[-12.703,28.667],[-12.174,29.109],[-12.017,29.448],[-11.763,30.299],[-12.182,31.187],[-12.982,32.298],[-12.685,33.229],[-12.537,34.413],[-12.78,34.848],[-13.336,35.471],[-14.057,35.97],[-14.899,36.316],[-15.836,36.495],[-16.667,36.5],[-17.487,36.366],[-18.894,35.951],[-19.779,35.491],[-20.258,35.106],[-20.653,34.674],[-20.949,34.21],[-21.154,33.707],[-21.271,33.071],[-21.242,32.426],[-21.07,31.794],[-20.756,31.188],[-21.263,30.625],[-21.614,30.009],[-21.814,29.33]]],[[[-35.634,39.806],[-35.582,39.0],[-35.36,38.299],[-34.96,37.647],[-34.409,37.08],[-33.723,36.61],[-32.702,36.191],[-31.577,35.997],[-30.854,35.583],[-29.976,35.265],[-28.598,35.009],[-28.047,34.493],[-27.382,34.074],[-26.632,33.77],[-25.827,33.596],[-24.9,33.543],[-24.033,33.639],[-23.192,33.889],[-22.435,34.279],[-21.718,34.863],[-21.089,35.668],[-20.746,36.307],[-20.566,36.99],[-20.59,37.855],[-20.878,38.66],[-21.578,39.763],[-21.983,40.166],[-22.447,40.503],[-23.116,40.845],[-23.867,41.087],[-24.361,41.438],[-24.894,41.717],[-26.259,42.204],[-27.346,42.44],[-28.471,42.464],[-29.347,42.839],[-30.314,43.056],[-31.388,43.103],[-32.448,42.957],[-33.43,42.624],[-34.272,42.12],[-34.923,41.472],[-35.437,40.598],[-35.634,39.806]]]]}},{"type":"Feature","properties":{"name":"Wider Europe EEZ + land, simplified 10km","buffer_km":10,"vertices":372,"wkt_chars":5263},"geometry":{"type":"MultiPolygon","coordinates":[[[[-13.743,37.983],[-13.276,37.051],[-13.188,36.398],[-12.947,35.766],[-12.488,35.086],[-12.105,34.787],[-8.889,35.079],[-8.313,35.204],[-7.496,35.67],[-6.094,35.872],[-5.52,35.867],[-5.229,35.701],[-3.952,35.892],[-3.419,35.578],[-2.363,35.663],[-0.814,36.613],[0.131,36.964],[0.829,37.523],[2.067,37.588],[2.801,37.889],[5.362,38.364],[6.063,38.693],[7.802,37.919],[10.628,38.302],[10.793,37.998],[11.835,37.116],[11.554,36.879],[11.656,36.572],[11.956,36.424],[12.283,36.5],[12.556,36.077],[12.468,35.829],[12.008,35.698],[12.047,35.359],[12.725,35.194],[13.102,35.604],[13.547,35.164],[13.691,34.622],[15.06,34.414],[15.126,34.132],[16.541,34.478],[18.314,35.322],[19.731,34.859],[21.301,34.71],[23.339,33.721],[24.459,33.357],[26.958,33.209],[28.823,33.415],[29.276,33.666],[29.833,33.727],[31.573,33.107],[32.982,32.798],[34.806,34.322],[35.2,35.135],[35.282,35.965],[36.228,35.743],[36.476,35.967],[36.497,36.122],[36.795,36.197],[36.667,36.477],[36.742,36.721],[37.077,36.545],[37.487,36.544],[38.255,36.824],[38.72,36.619],[39.234,36.579],[39.866,36.672],[40.759,37.02],[41.534,36.99],[42.211,37.182],[42.364,37.01],[42.646,37.072],[42.82,37.256],[43.12,37.278],[43.833,37.105],[44.122,37.221],[44.129,36.988],[44.321,36.876],[44.655,37.086],[44.87,37.082],[44.926,37.286],[44.719,37.483],[44.729,37.756],[44.374,37.959],[44.625,38.352],[44.437,38.474],[44.429,38.815],[44.211,39.315],[44.504,39.347],[44.604,39.645],[44.827,39.538],[44.932,39.67],[44.489,40.069],[43.831,40.153],[43.724,40.457],[43.866,40.737],[43.716,41.023],[44.925,41.119],[45.309,41.365],[46.528,40.969],[46.751,41.059],[46.857,41.288],[46.351,41.694],[46.468,41.768],[46.681,41.741],[47.236,41.235],[47.845,41.107],[48.692,41.782],[49.967,42.488],[50.124,42.745],[49.397,43.358],[49.125,43.396],[49.126,43.978],[49.727,44.062],[49.688,44.394],[49.261,44.422],[49.303,45.067],[50.13,46.026],[48.866,46.601],[49.143,46.795],[48.282,47.758],[47.302,47.885],[47.227,47.962],[47.346,48.09],[47.218,48.327],[46.663,48.477],[46.89,48.883],[47.17,49.085],[47.161,49.217],[46.933,49.381],[47.025,49.792],[47.472,50.044],[47.568,50.344],[48.123,49.809],[48.494,49.718],[49.035,49.983],[48.811,50.511],[49.535,50.792],[49.53,51.013],[50.454,51.257],[50.958,51.588],[51.23,51.407],[51.648,51.361],[51.911,51.429],[51.959,51.585],[52.272,51.621],[52.485,51.361],[53.451,51.35],[53.571,51.162],[53.928,51.086],[54.333,50.801],[54.274,50.605],[54.516,50.443],[54.861,50.577],[54.834,50.845],[55.777,50.464],[56.172,50.64],[56.28,50.816],[57.106,50.989],[57.497,50.79],[57.866,50.864],[57.9,51.005],[58.45,50.992],[58.565,50.745],[59.519,50.411],[59.892,50.461],[60.136,50.647],[60.388,76.29],[60.648,81.885],[61.086,85.181],[55.131,85.242],[46.053,84.958],[40.545,84.564],[34.054,83.858],[25.574,84.17],[19.842,84.232],[13.103,84.107],[7.326,83.766],[6.872,83.573],[5.238,82.382],[1.694,81.327],[-2.083,79.926],[-3.767,78.356],[-3.623,77.609],[-3.108,76.867],[0.663,75.906],[2.644,75.23],[6.102,74.298],[6.599,73.736],[7.379,73.207],[8.545,72.649],[9.933,72.163],[7.156,71.162],[5.089,70.027],[3.838,69.176],[3.261,68.626],[2.962,68.021],[2.939,67.425],[3.189,66.825],[3.088,66.48],[-0.488,64.582],[-2.538,65.339],[-5.357,65.77],[-5.551,66.459],[-6.336,67.547],[-2.245,68.252],[-0.727,68.697],[0.528,69.215],[1.605,69.867],[2.348,70.603],[2.651,71.276],[2.557,71.919],[2.242,72.369],[1.72,72.798],[0.132,73.533],[-2.131,74.095],[-4.924,74.45],[-11.755,72.86],[-13.052,71.896],[-13.887,69.926],[-13.545,69.589],[-13.753,69.426],[-21.852,68.219],[-24.566,67.707],[-27.128,67.029],[-29.193,66.242],[-30.069,65.238],[-31.057,63.272],[-29.786,61.991],[-28.101,61.095],[-25.95,60.5],[-21.578,59.912],[-17.33,60.038],[-14.087,60.596],[-13.507,60.154],[-14.471,59.4],[-14.985,58.534],[-15.015,57.549],[-14.524,56.599],[-15.568,55.689],[-16.071,54.829],[-16.17,54.116],[-15.999,53.187],[-16.228,52.414],[-16.16,51.561],[-15.531,50.399],[-14.667,49.56],[-13.122,48.685],[-10.889,48.097],[-10.002,47.39],[-9.809,46.92],[-11.508,46.217],[-12.581,45.594],[-13.32,44.885],[-13.832,43.987],[-13.97,43.317],[-13.931,42.604],[-13.39,41.243],[-13.864,40.333],[-13.975,39.354],[-13.743,37.983]],[[38.364,75.805],[38.389,76.742],[41.577,76.861],[43.422,76.746],[42.74,76.227],[42.503,75.889],[42.414,75.429],[41.62,74.755],[41.405,74.07],[40.573,72.902],[40.433,72.259],[39.958,72.333],[37.418,73.266],[34.294,73.983],[37.324,74.884],[37.349,75.181],[38.364,75.805]]],[[[-2.608,35.233],[-2.49,35.065],[-2.294,35.118],[-2.296,35.223],[-2.608,35.233]]],[[[-2.941,35.433],[-3.072,35.255],[-2.912,35.18],[-2.782,35.361],[-2.941,35.433]]],[[[-3.915,35.338],[-4.01,35.206],[-3.843,35.127],[-3.745,35.301],[-3.915,35.338]]],[[[-4.389,35.267],[-4.397,35.121],[-4.231,35.1],[-4.206,35.237],[-4.389,35.267]]],[[[-21.864,29.333],[-21.996,27.38],[-21.592,26.177],[-20.746,25.181],[-19.551,24.499],[-17.14,25.576],[-16.678,26.048],[-15.973,26.32],[-14.665,27.103],[-14.291,27.163],[-13.747,27.608],[-13.148,28.37],[-12.135,29.082],[-11.713,30.291],[-12.135,31.209],[-12.925,32.306],[-12.634,33.22],[-12.483,34.41],[-12.719,34.852],[-13.276,35.486],[-14.004,35.997],[-14.867,36.356],[-15.8,36.537],[-17.486,36.413],[-18.913,35.993],[-19.797,35.536],[-20.685,34.714],[-21.205,33.721],[-21.323,33.087],[-21.298,32.435],[-20.821,31.192],[-21.316,30.635],[-21.664,30.016],[-21.864,29.333]]],[[[-35.693,39.807],[-35.64,38.99],[-35.416,38.284],[-35.01,37.622],[-34.452,37.047],[-33.759,36.574],[-32.741,36.153],[-31.604,35.953],[-30.878,35.541],[-30.004,35.224],[-28.63,34.965],[-28.066,34.444],[-27.397,34.026],[-25.839,33.551],[-24.902,33.497],[-24.018,33.597],[-23.162,33.853],[-22.39,34.253],[-21.67,34.843],[-21.033,35.659],[-20.689,36.304],[-20.51,36.989],[-20.534,37.864],[-20.824,38.679],[-21.529,39.788],[-22.407,40.537],[-23.832,41.126],[-24.861,41.756],[-26.232,42.244],[-27.326,42.483],[-28.45,42.51],[-29.328,42.883],[-30.304,43.1],[-31.401,43.147],[-32.478,42.996],[-33.469,42.657],[-34.315,42.149],[-34.975,41.492],[-35.494,40.608],[-35.693,39.807]]]]}},{"type":"Feature","properties":{"name":"Wider Europe EEZ + land, simplified 20km","buffer_km":20,"vertices":234,"wkt_chars":3321},"geometry":{"type":"MultiPolygon","coordinates":[[[[-14.088,39.309],[-12.841,35.376],[-12.159,34.696],[-8.875,34.989],[-7.451,35.583],[-6.049,35.784],[-5.228,35.61],[-3.98,35.792],[-3.008,35.507],[-3.1,35.131],[-2.427,34.975],[-2.208,35.278],[-2.831,35.522],[-2.259,35.601],[0.878,37.43],[2.096,37.501],[6.059,38.585],[7.791,37.829],[10.562,38.194],[11.678,37.156],[11.434,36.85],[11.567,36.518],[12.244,36.373],[12.422,36.078],[11.893,35.711],[11.973,35.292],[12.7,35.096],[13.111,35.459],[13.629,34.548],[14.954,34.33],[15.157,34.032],[16.584,34.394],[18.323,35.22],[19.717,34.769],[21.263,34.624],[24.455,33.266],[26.97,33.118],[29.819,33.634],[32.991,32.707],[34.899,34.272],[35.408,35.88],[36.299,35.672],[36.892,36.149],[36.818,36.604],[37.496,36.454],[38.261,36.731],[39.256,36.49],[40.791,36.932],[42.375,36.921],[43.136,37.182],[44.333,36.786],[44.954,37.018],[45.02,37.347],[44.545,37.995],[44.738,38.364],[44.409,39.217],[45.047,39.682],[44.559,40.138],[43.942,40.206],[43.906,40.97],[44.966,41.033],[45.324,41.26],[46.552,40.88],[46.853,41.008],[46.912,41.403],[47.478,41.033],[47.909,41.029],[50.248,42.74],[49.251,43.471],[49.252,43.889],[49.853,44.057],[49.776,44.456],[49.397,44.511],[49.431,45.036],[50.244,46.067],[49.131,46.576],[49.264,46.828],[48.368,47.825],[47.464,48.006],[47.313,48.389],[46.838,48.527],[47.319,49.113],[47.084,49.418],[47.153,49.731],[47.609,50.195],[48.019,49.751],[48.547,49.636],[49.167,49.948],[48.974,50.446],[49.717,50.931],[50.995,51.447],[51.64,51.273],[52.213,51.5],[52.522,51.264],[53.307,51.292],[54.489,50.357],[55.016,50.634],[55.82,50.379],[57.0,50.89],[57.489,50.702],[58.294,50.908],[59.526,50.323],[60.276,50.619],[60.776,76.294],[61.298,81.89],[62.175,85.187],[57.142,85.349],[47.693,85.132],[41.126,84.738],[33.914,83.968],[19.726,84.325],[6.667,83.819],[4.615,82.415],[-2.533,79.968],[-4.192,78.378],[-4.031,77.608],[-3.422,76.817],[5.801,74.254],[7.109,73.165],[9.572,72.148],[6.929,71.214],[3.615,69.217],[2.73,68.05],[2.878,66.523],[-0.493,64.725],[-2.488,65.431],[-5.142,65.846],[-6.05,67.483],[-2.026,68.197],[0.792,69.192],[2.62,70.597],[2.926,71.271],[2.839,71.931],[1.992,72.834],[0.366,73.591],[-1.961,74.171],[-4.84,74.537],[-12.036,72.896],[-13.336,71.911],[-14.146,69.942],[-13.823,69.594],[-13.948,69.496],[-24.691,67.784],[-29.408,66.272],[-30.283,65.258],[-31.247,63.242],[-29.952,61.946],[-28.248,61.038],[-26.015,60.418],[-21.536,59.82],[-17.331,59.948],[-14.171,60.487],[-13.737,60.158],[-14.663,59.403],[-15.158,58.543],[-15.189,57.568],[-14.713,56.615],[-15.735,55.702],[-16.231,54.827],[-16.303,51.544],[-15.647,50.344],[-14.752,49.486],[-13.193,48.609],[-10.971,48.017],[-10.127,47.345],[-9.973,46.966],[-12.741,45.605],[-13.466,44.881],[-13.979,43.929],[-14.049,42.572],[-13.515,41.258],[-13.986,40.328],[-14.088,39.309]],[[38.728,75.809],[38.773,76.66],[42.901,76.68],[42.229,76.058],[42.057,75.442],[41.283,74.765],[40.135,72.422],[37.772,73.293],[34.812,73.991],[37.647,74.858],[37.697,75.167],[38.728,75.809]]],[[[-4.384,35.371],[-4.489,35.071],[-3.811,35.04],[-3.643,35.337],[-4.384,35.371]]],[[[-21.886,29.686],[-22.083,27.271],[-21.234,25.512],[-19.52,24.4],[-17.101,25.494],[-16.624,25.97],[-13.874,27.362],[-13.08,28.305],[-12.056,29.028],[-11.608,30.313],[-12.81,32.323],[-12.376,34.403],[-12.865,35.215],[-14.326,36.26],[-16.217,36.65],[-18.778,36.137],[-20.263,35.296],[-20.974,34.474],[-21.364,33.528],[-21.39,32.342],[-20.949,31.201],[-21.886,29.686]]],[[[-35.248,37.761],[-34.474,36.931],[-33.085,36.164],[-28.694,34.879],[-26.942,33.724],[-24.834,33.409],[-23.16,33.756],[-21.771,34.609],[-20.683,36.054],[-20.375,37.468],[-20.579,38.421],[-21.214,39.557],[-22.613,40.771],[-26.373,42.385],[-31.347,43.238],[-32.728,43.024],[-33.94,42.518],[-34.871,41.78],[-35.53,40.801],[-35.813,39.789],[-35.695,38.711],[-35.248,37.761]]]]}},{"type":"Feature","properties":{"name":"Wider Europe EEZ + land, simplified 40km","buffer_km":40,"vertices":141,"wkt_chars":1716},"geometry":{"type":"MultiPolygon","coordinates":[[[[-22.1,29.68],[-22.28,27.23],[-21.27,25.26],[-19.38,24.25],[-14.12,26.95],[-11.9,28.92],[-11.4,30.35],[-12.58,32.36],[-12.18,34.52],[-8.84,34.81],[-6.05,35.6],[-4.62,35.46],[-4.43,34.82],[-3.4,35.31],[-2.34,34.8],[-2.13,35.46],[0.98,37.25],[6.05,38.37],[7.77,37.65],[10.43,37.98],[11.36,37.17],[11.41,36.39],[12.15,36.1],[11.66,35.72],[11.82,35.16],[13.17,35.12],[13.5,34.4],[15.14,33.85],[18.34,35.02],[21.19,34.45],[24.45,33.08],[26.99,32.94],[29.8,33.45],[33.01,32.53],[35.08,34.17],[35.61,35.66],[36.44,35.53],[37.14,36.28],[45.12,36.89],[44.68,39.11],[45.28,39.71],[44.1,40.39],[44.2,40.83],[48.03,40.87],[50.5,42.73],[49.5,43.71],[50.07,43.92],[49.69,44.97],[50.53,46.03],[48.54,47.96],[47.19,48.63],[47.59,49.08],[47.42,49.61],[49.14,49.66],[49.3,50.36],[50.96,51.21],[53.11,51.12],[54.44,50.19],[58.15,50.66],[59.54,50.15],[60.56,50.56],[61.55,76.3],[62.6,81.9],[64.36,85.19],[51.93,85.45],[33.63,84.18],[17.91,84.5],[5.31,83.92],[3.35,82.48],[-3.44,80.05],[-5.07,78.33],[-4.04,76.71],[5.21,74.16],[8.79,72.14],[6.29,71.22],[3.05,69.21],[2.25,68.03],[2.45,66.61],[0.72,65.6],[-0.52,65.0],[-4.72,65.99],[-5.48,67.36],[-1.35,68.15],[1.54,69.26],[3.28,70.76],[3.28,72.19],[0.42,73.84],[-5.1,74.73],[-12.6,72.97],[-13.91,71.94],[-14.66,69.97],[-14.41,69.62],[-24.94,67.94],[-29.84,66.33],[-31.63,63.18],[-28.52,60.91],[-21.44,59.64],[-14.19,60.17],[-15.52,58.51],[-15.09,56.64],[-16.56,54.8],[-16.58,51.49],[-14.91,49.33],[-11.14,47.86],[-10.3,47.06],[-13.01,45.66],[-14.25,43.89],[-14.29,42.52],[-13.77,41.28],[-14.32,39.27],[-13.39,35.96],[-15.0,36.68],[-16.83,36.8],[-19.17,36.19],[-20.62,35.23],[-21.59,33.5],[-21.2,31.22],[-22.1,29.68]],[[39.46,75.82],[39.53,76.5],[41.92,76.55],[39.67,72.94],[35.81,74.0],[38.29,74.81],[39.46,75.82]]],[[[-35.92,38.66],[-34.64,36.8],[-28.82,34.71],[-27.03,33.55],[-24.77,33.23],[-23.03,33.61],[-21.58,34.53],[-20.46,36.03],[-20.15,37.53],[-21.02,39.67],[-22.48,40.93],[-26.29,42.56],[-31.41,43.41],[-34.11,42.64],[-35.76,40.84],[-35.92,38.66]]]]}}]}