MULTIPOLYGON (((-13.743 37.983,-13.276 37.051,-13.188 36.398,-12.947 35.766,-12.488 35.086,-12.105 34.787,-8.889 35.079,-8.313 35.204,-7.496 35.67,-6.094 35.872,-5.52 35.867,-5.229 35.701,-3.952 35.892,-3.419 35.578,-2.363 35.663,-0.814 36.613,0.131 36.964,0.829 37.523,2.067 37.588,2.801 37.889,5.362 38.364,6.063 38.693,7.802 37.919,10.628 38.302,10.793 37.998,11.835 37.116,11.554 36.879,11.656 36.572,11.956 36.424,12.283 36.5,12.556 36.077,12.468 35.829,12.008 35.698,12.047 35.359,12.725 35.194,13.102 35.604,13.547 35.164,13.691 34.622,15.06 34.414,15.126 34.132,16.541 34.478,18.314 35.322,19.731 34.859,21.301 34.71,23.339 33.721,24.459 33.357,26.958 33.209,28.823 33.415,29.276 33.666,29.833 33.727,31.573 33.107,32.982 32.798,34.806 34.322,35.2 35.135,35.282 35.965,36.228 35.743,36.476 35.967,36.497 36.122,36.795 36.197,36.667 36.477,36.742 36.721,37.077 36.545,37.487 36.544,38.255 36.824,38.72 36.619,39.234 36.579,39.866 36.672,40.759 37.02,41.534 36.99,42.211 37.182,42.364 37.01,42.646 37.072,42.82 37.256,43.12 37.278,43.833 37.105,44.122 37.221,44.129 36.988,44.321 36.876,44.655 37.086,44.87 37.082,44.926 37.286,44.719 37.483,44.729 37.756,44.374 37.959,44.625 38.352,44.437 38.474,44.429 38.815,44.211 39.315,44.504 39.347,44.604 39.645,44.827 39.538,44.932 39.67,44.489 40.069,43.831 40.153,43.724 40.457,43.866 40.737,43.716 41.023,44.925 41.119,45.309 41.365,46.528 40.969,46.751 41.059,46.857 41.288,46.351 41.694,46.468 41.768,46.681 41.741,47.236 41.235,47.845 41.107,48.692 41.782,49.967 42.488,50.124 42.745,49.397 43.358,49.125 43.396,49.126 43.978,49.727 44.062,49.688 44.394,49.261 44.422,49.303 45.067,50.13 46.026,48.866 46.601,49.143 46.795,48.282 47.758,47.302 47.885,47.227 47.962,47.346 48.09,47.218 48.327,46.663 48.477,46.89 48.883,47.17 49.085,47.161 49.217,46.933 49.381,47.025 49.792,47.472 50.044,47.568 50.344,48.123 49.809,48.494 49.718,49.035 49.983,48.811 50.511,49.535 50.792,49.53 51.013,50.454 51.257,50.958 51.588,51.23 51.407,51.648 51.361,51.911 51.429,51.959 51.585,52.272 51.621,52.485 51.361,53.451 51.35,53.571 51.162,53.928 51.086,54.333 50.801,54.274 50.605,54.516 50.443,54.861 50.577,54.834 50.845,55.777 50.464,56.172 50.64,56.28 50.816,57.106 50.989,57.497 50.79,57.866 50.864,57.9 51.005,58.45 50.992,58.565 50.745,59.519 50.411,59.892 50.461,60.136 50.647,60.388 76.29,60.648 81.885,61.086 85.181,55.131 85.242,46.053 84.958,40.545 84.564,34.054 83.858,25.574 84.17,19.842 84.232,13.103 84.107,7.326 83.766,6.872 83.573,5.238 82.382,1.694 81.327,-2.083 79.926,-3.767 78.356,-3.623 77.609,-3.108 76.867,0.663 75.906,2.644 75.23,6.102 74.298,6.599 73.736,7.379 73.207,8.545 72.649,9.933 72.163,7.156 71.162,5.089 70.027,3.838 69.176,3.261 68.626,2.962 68.021,2.939 67.425,3.189 66.825,3.088 66.48,-0.488 64.582,-2.538 65.339,-5.357 65.77,-5.551 66.459,-6.336 67.547,-2.245 68.252,-0.727 68.697,0.528 69.215,1.605 69.867,2.348 70.603,2.651 71.276,2.557 71.919,2.242 72.369,1.72 72.798,0.132 73.533,-2.131 74.095,-4.924 74.45,-11.755 72.86,-13.052 71.896,-13.887 69.926,-13.545 69.589,-13.753 69.426,-21.852 68.219,-24.566 67.707,-27.128 67.029,-29.193 66.242,-30.069 65.238,-31.057 63.272,-29.786 61.991,-28.101 61.095,-25.95 60.5,-21.578 59.912,-17.33 60.038,-14.087 60.596,-13.507 60.154,-14.471 59.4,-14.985 58.534,-15.015 57.549,-14.524 56.599,-15.568 55.689,-16.071 54.829,-16.17 54.116,-15.999 53.187,-16.228 52.414,-16.16 51.561,-15.531 50.399,-14.667 49.56,-13.122 48.685,-10.889 48.097,-10.002 47.39,-9.809 46.92,-11.508 46.217,-12.581 45.594,-13.32 44.885,-13.832 43.987,-13.97 43.317,-13.931 42.604,-13.39 41.243,-13.864 40.333,-13.975 39.354,-13.743 37.983),(38.364 75.805,38.389 76.742,41.577 76.861,43.422 76.746,42.74 76.227,42.503 75.889,42.414 75.429,41.62 74.755,41.405 74.07,40.573 72.902,40.433 72.259,39.958 72.333,37.418 73.266,34.294 73.983,37.324 74.884,37.349 75.181,38.364 75.805)),((-2.608 35.233,-2.49 35.065,-2.294 35.118,-2.296 35.223,-2.608 35.233)),((-2.941 35.433,-3.072 35.255,-2.912 35.18,-2.782 35.361,-2.941 35.433)),((-3.915 35.338,-4.01 35.206,-3.843 35.127,-3.745 35.301,-3.915 35.338)),((-4.389 35.267,-4.397 35.121,-4.231 35.1,-4.206 35.237,-4.389 35.267)),((-21.864 29.333,-21.996 27.38,-21.592 26.177,-20.746 25.181,-19.551 24.499,-17.14 25.576,-16.678 26.048,-15.973 26.32,-14.665 27.103,-14.291 27.163,-13.747 27.608,-13.148 28.37,-12.135 29.082,-11.713 30.291,-12.135 31.209,-12.925 32.306,-12.634 33.22,-12.483 34.41,-12.719 34.852,-13.276 35.486,-14.004 35.997,-14.867 36.356,-15.8 36.537,-17.486 36.413,-18.913 35.993,-19.797 35.536,-20.685 34.714,-21.205 33.721,-21.323 33.087,-21.298 32.435,-20.821 31.192,-21.316 30.635,-21.664 30.016,-21.864 29.333)),((-35.693 39.807,-35.64 38.99,-35.416 38.284,-35.01 37.622,-34.452 37.047,-33.759 36.574,-32.741 36.153,-31.604 35.953,-30.878 35.541,-30.004 35.224,-28.63 34.965,-28.066 34.444,-27.397 34.026,-25.839 33.551,-24.902 33.497,-24.018 33.597,-23.162 33.853,-22.39 34.253,-21.67 34.843,-21.033 35.659,-20.689 36.304,-20.51 36.989,-20.534 37.864,-20.824 38.679,-21.529 39.788,-22.407 40.537,-23.832 41.126,-24.861 41.756,-26.232 42.244,-27.326 42.483,-28.45 42.51,-29.328 42.883,-30.304 43.1,-31.401 43.147,-32.478 42.996,-33.469 42.657,-34.315 42.149,-34.975 41.492,-35.494 40.608,-35.693 39.807)))