MULTIPOLYGON (((-14.088 39.309,-12.841 35.376,-12.159 34.696,-8.875 34.989,-7.451 35.583,-6.049 35.784,-5.228 35.61,-3.98 35.792,-3.008 35.507,-3.1 35.131,-2.427 34.975,-2.208 35.278,-2.831 35.522,-2.259 35.601,0.878 37.43,2.096 37.501,6.059 38.585,7.791 37.829,10.562 38.194,11.678 37.156,11.434 36.85,11.567 36.518,12.244 36.373,12.422 36.078,11.893 35.711,11.973 35.292,12.7 35.096,13.111 35.459,13.629 34.548,14.954 34.33,15.157 34.032,16.584 34.394,18.323 35.22,19.717 34.769,21.263 34.624,24.455 33.266,26.97 33.118,29.819 33.634,32.991 32.707,34.899 34.272,35.408 35.88,36.299 35.672,36.892 36.149,36.818 36.604,37.496 36.454,38.261 36.731,39.256 36.49,40.791 36.932,42.375 36.921,43.136 37.182,44.333 36.786,44.954 37.018,45.02 37.347,44.545 37.995,44.738 38.364,44.409 39.217,45.047 39.682,44.559 40.138,43.942 40.206,43.906 40.97,44.966 41.033,45.324 41.26,46.552 40.88,46.853 41.008,46.912 41.403,47.478 41.033,47.909 41.029,50.248 42.74,49.251 43.471,49.252 43.889,49.853 44.057,49.776 44.456,49.397 44.511,49.431 45.036,50.244 46.067,49.131 46.576,49.264 46.828,48.368 47.825,47.464 48.006,47.313 48.389,46.838 48.527,47.319 49.113,47.084 49.418,47.153 49.731,47.609 50.195,48.019 49.751,48.547 49.636,49.167 49.948,48.974 50.446,49.717 50.931,50.995 51.447,51.64 51.273,52.213 51.5,52.522 51.264,53.307 51.292,54.489 50.357,55.016 50.634,55.82 50.379,57 50.89,57.489 50.702,58.294 50.908,59.526 50.323,60.276 50.619,60.776 76.294,61.298 81.89,62.175 85.187,57.142 85.349,47.693 85.132,41.126 84.738,33.914 83.968,19.726 84.325,6.667 83.819,4.615 82.415,-2.533 79.968,-4.192 78.378,-4.031 77.608,-3.422 76.817,5.801 74.254,7.109 73.165,9.572 72.148,6.929 71.214,3.615 69.217,2.73 68.05,2.878 66.523,-0.493 64.725,-2.488 65.431,-5.142 65.846,-6.05 67.483,-2.026 68.197,0.792 69.192,2.62 70.597,2.926 71.271,2.839 71.931,1.992 72.834,0.366 73.591,-1.961 74.171,-4.84 74.537,-12.036 72.896,-13.336 71.911,-14.146 69.942,-13.823 69.594,-13.948 69.496,-24.691 67.784,-29.408 66.272,-30.283 65.258,-31.247 63.242,-29.952 61.946,-28.248 61.038,-26.015 60.418,-21.536 59.82,-17.331 59.948,-14.171 60.487,-13.737 60.158,-14.663 59.403,-15.158 58.543,-15.189 57.568,-14.713 56.615,-15.735 55.702,-16.231 54.827,-16.303 51.544,-15.647 50.344,-14.752 49.486,-13.193 48.609,-10.971 48.017,-10.127 47.345,-9.973 46.966,-12.741 45.605,-13.466 44.881,-13.979 43.929,-14.049 42.572,-13.515 41.258,-13.986 40.328,-14.088 39.309),(38.728 75.809,38.773 76.66,42.901 76.68,42.229 76.058,42.057 75.442,41.283 74.765,40.135 72.422,37.772 73.293,34.812 73.991,37.647 74.858,37.697 75.167,38.728 75.809)),((-4.384 35.371,-4.489 35.071,-3.811 35.04,-3.643 35.337,-4.384 35.371)),((-21.886 29.686,-22.083 27.271,-21.234 25.512,-19.52 24.4,-17.101 25.494,-16.624 25.97,-13.874 27.362,-13.08 28.305,-12.056 29.028,-11.608 30.313,-12.81 32.323,-12.376 34.403,-12.865 35.215,-14.326 36.26,-16.217 36.65,-18.778 36.137,-20.263 35.296,-20.974 34.474,-21.364 33.528,-21.39 32.342,-20.949 31.201,-21.886 29.686)),((-35.248 37.761,-34.474 36.931,-33.085 36.164,-28.694 34.879,-26.942 33.724,-24.834 33.409,-23.16 33.756,-21.771 34.609,-20.683 36.054,-20.375 37.468,-20.579 38.421,-21.214 39.557,-22.613 40.771,-26.373 42.385,-31.347 43.238,-32.728 43.024,-33.94 42.518,-34.871 41.78,-35.53 40.801,-35.813 39.789,-35.695 38.711,-35.248 37.761)))